IRIDIUM 57              
1 25273U 98019B   24366.84167885  .00001117  00000+0  38066-3 0  9999
2 25273  86.3967 215.3073 0001918  86.6510 273.4906 14.35663940400776
IRIDIUM 63              
1 25286U 98021B   24366.85434142  .00001701  00000+0  57585-3 0  9996
2 25286  86.4011 152.2942 0002149  91.4380 268.7063 14.36287440399823
IRIDIUM 69              
1 25319U 98026A   24366.75185871  .00001884  00000+0  58502-3 0  9991
2 25319  86.4005 166.1141 0001953 162.8933 197.2332 14.40629427398955
IRIDIUM 71              
1 25320U 98026B   24366.71330910  .00001782  00000+0  55019-3 0  9992
2 25320  86.4004 160.8577 0000381 343.0013  17.1173 14.40869250399477
IRIDIUM 73              
1 25344U 98032C   24366.75223110  .00002612  00000+0  65159-3 0  9991
2 25344  86.4433 117.9332 0001984 112.6363 247.5052 14.51299929406273
IRIDIUM 82              
1 25467U 98051A   24366.79695806  .00042944  00000+0  16506-2 0  9990
2 25467  86.3719 191.2863 0103503 207.3800 152.1969 15.21300665398419
